Sat:
  Predict:
    EAzimuth: 180
    Elevation: 38
    Length of pass: 900
    SAzimuth: 25
    time used UTC: 20151221085846
    timezone used: 1
    used TLE line1: 1 37855U 11061F   15354.79845183  .00008063  00000-0  45235-3
      0  9999
    used TLE line2: 2 37855 101.7113 300.3417 0192995 246.0703 112.0186 14.99400653225097
  Record:
    Start of recording: 201512220303
    num_sample: 225000000
    sample_rate: 250000
    time1 UTC: 2015-12-22 02:03:00.724443
    time2 UTC: 2015-12-22 02:03:01.450388
    time3 LT: 2015-12-22 03:03:00.724405
  State:
    Antenna: 3
    NORADID: '37855'
    Name: M-CUBED
    Priority: 4
    Tuning Frequency: 437485000
  Station:
    Height: 0.0
    Lat: 51.01566
    Lon: 4.006819722222223
    Name: DopTrack
